start=new Date('2023-04-16T00:00:00.000Z').valueOf();
sats=[{"PERIAPSIS":"545.638","ELEMENT_SET_NO":"999","REF_FRAME":"TEME","BSTAR":"0.00082987000000","MEAN_MOTION_DOT":"0.00012110","MEAN_MOTION_DDOT":"0.0000000000000","RA_OF_ASC_NODE":"164.7783","MEAN_ELEMENT_THEORY":"SGP4","SITE":"AFETR","GP_ID":"230128632","CLASSIFICATION_TYPE":"U","TIME_SYSTEM":"UTC","OBJECT_TYPE":"PAYLOAD","FILE":"3888171","MEAN_ANOMALY":"302.5573","SEMIMAJOR_AXIS":"6925.264","OBJECT_NAME":"STARLINK-2524","EPOCH":"2023-04-15T21:14:45.696768","COUNTRY_CODE":"US","PERIOD":"95.590","OBJECT_ID":"2021-036AE","ARG_OF_PERICENTER":"57.5624","DECAY_DATE":null,"NORAD_CAT_ID":"48304","LAUNCH_DATE":"2021-04-29","CENTER_NAME":"EARTH","ECCENTRICITY":"0.00021530","RCS_SIZE":"LARGE","MEAN_MOTION":"15.06427495","TLE_LINE2":"2 48304  53.0527 164.7783 0002153  57.5624 302.5573 15.06427495108589","REV_AT_EPOCH":"10858","INCLINATION":"53.0527","TLE_LINE1":"1 48304U 21036AE  23105.88525112  .00012110  00000-0  82987-3 0  9996","APOAPSIS":"548.620","EPHEMERIS_TYPE":"0"},{"REV_AT_EPOCH":"10858","INCLINATION":"53.0534","TLE_LINE1":"1 48305U 21036AF  23105.88058483 -.00029641  00000-0 -19793-2 0  9992","APOAPSIS":"547.998","EPHEMERIS_TYPE":"0","TLE_LINE2":"2 48305  53.0534 164.7854 0001135  45.4429 314.6652 15.06400542108581","MEAN_MOTION":"15.06400542","LAUNCH_DATE":"2021-04-29","ECCENTRICITY":"0.00011350","CENTER_NAME":"EARTH","RCS_SIZE":"LARGE","DECAY_DATE":null,"NORAD_CAT_ID":"48305","COUNTRY_CODE":"US","OBJECT_ID":"2021-036AF","PERIOD":"95.592","ARG_OF_PERICENTER":"45.4429","EPOCH":"2023-04-15T21:08:02.529312","MEAN_ANOMALY":"314.6652","SEMIMAJOR_AXIS":"6925.347","OBJECT_NAME":"STARLINK-2519","TIME_SYSTEM":"UTC","FILE":"3888171","OBJECT_TYPE":"PAYLOAD","GP_ID":"230129381","CLASSIFICATION_TYPE":"U","MEAN_ELEMENT_THEORY":"SGP4","SITE":"AFETR","BSTAR":"-0.00197930000000","MEAN_MOTION_DOT":"-0.00029641","MEAN_MOTION_DDOT":"0.0000000000000","RA_OF_ASC_NODE":"164.7854","PERIAPSIS":"546.426","ELEMENT_SET_NO":"999","REF_FRAME":"TEME"},{"PERIAPSIS":"546.075","ELEMENT_SET_NO":"999","REF_FRAME":"TEME","MEAN_MOTION_DDOT":"0.0000000000000","MEAN_MOTION_DOT":"0.00005267","BSTAR":"0.00037193000000","RA_OF_ASC_NODE":"164.8124","MEAN_ELEMENT_THEORY":"SGP4","SITE":"AFETR","CLASSIFICATION_TYPE":"U","GP_ID":"230129633","OBJECT_TYPE":"PAYLOAD","FILE":"3888171","TIME_SYSTEM":"UTC","SEMIMAJOR_AXIS":"6925.263","MEAN_ANOMALY":"282.6865","OBJECT_NAME":"STARLINK-2523","EPOCH":"2023-04-15T21:04:08.573664","COUNTRY_CODE":"US","ARG_OF_PERICENTER":"77.4294","OBJECT_ID":"2021-036AG","PERIOD":"95.590","DECAY_DATE":null,"NORAD_CAT_ID":"48306","CENTER_NAME":"EARTH","LAUNCH_DATE":"2021-04-29","ECCENTRICITY":"0.00015210","RCS_SIZE":"LARGE","MEAN_MOTION":"15.06427903","TLE_LINE2":"2 48306  53.0521 164.8124 0001521  77.4294 282.6865 15.06427903108583","REV_AT_EPOCH":"10858","TLE_LINE1":"1 48306U 21036AG  23105.87787701  .00005267  00000-0  37193-3 0  9995","APOAPSIS":"548.181","EPHEMERIS_TYPE":"0","INCLINATION":"53.0521"},{"RCS_SIZE":"LARGE","LAUNCH_DATE":"2021-04-29","ECCENTRICITY":"0.00029170","CENTER_NAME":"EARTH","DECAY_DATE":null,"NORAD_CAT_ID":"48307","ARG_OF_PERICENTER":"68.9954","OBJECT_ID":"2021-036AH","PERIOD":"95.589","COUNTRY_CODE":"US","APOAPSIS":"549.099","TLE_LINE1":"1 48307U 21036AH  23105.87415571  .00003191  00000-0  23277-3 0  9991","EPHEMERIS_TYPE":"0","INCLINATION":"53.0527","REV_AT_EPOCH":"10917","TLE_LINE2":"2 48307  53.0527 164.8264 0002917  68.9954 291.1347 15.06443872109172","MEAN_MOTION":"15.06443872","SITE":"AFETR","MEAN_ELEMENT_THEORY":"SGP4","RA_OF_ASC_NODE":"164.8264","MEAN_MOTION_DOT":"0.00003191","MEAN_MOTION_DDOT":"0.0000000000000","BSTAR":"0.00023277000000","ELEMENT_SET_NO":"999","REF_FRAME":"TEME","PERIAPSIS":"545.059","EPOCH":"2023-04-15T20:58:47.053344","OBJECT_NAME":"STARLINK-2528","SEMIMAJOR_AXIS":"6925.214","MEAN_ANOMALY":"291.1347","FILE":"3888018","OBJECT_TYPE":"PAYLOAD","TIME_SYSTEM":"UTC","CLASSIFICATION_TYPE":"U","GP_ID":"230104450"},{"DECAY_DATE":null,"NORAD_CAT_ID":"48308","LAUNCH_DATE":"2021-04-29","ECCENTRICITY":"0.00020850","CENTER_NAME":"EARTH","RCS_SIZE":"LARGE","COUNTRY_CODE":"US","ARG_OF_PERICENTER":"55.2325","OBJECT_ID":"2021-036AJ","PERIOD":"95.589","REV_AT_EPOCH":"10858","EPHEMERIS_TYPE":"0","TLE_LINE1":"1 48308U 21036AJ  23105.87047227  .00014937  00000-0  10184-2 0  9993","APOAPSIS":"548.527","INCLINATION":"53.0528","MEAN_MOTION":"15.06442485","TLE_LINE2":"2 48308  53.0528 164.8425 0002085  55.2325 304.8860 15.06442485108585","MEAN_MOTION_DDOT":"0.0000000000000","MEAN_MOTION_DOT":"0.00014937","BSTAR":"0.00101840000000","RA_OF_ASC_NODE":"164.8425","MEAN_ELEMENT_THEORY":"SGP4","SITE":"AFETR","PERIAPSIS":"545.639","ELEMENT_SET_NO":"999","REF_FRAME":"TEME","MEAN_ANOMALY":"304.8860","SEMIMAJOR_AXIS":"6925.218","OBJECT_NAME":"STARLINK-2532","EPOCH":"2023-04-15T20:53:28.804128","CLASSIFICATION_TYPE":"U","GP_ID":"230129132","FILE":"3888171","OBJECT_TYPE":"PAYLOAD","TIME_SYSTEM":"UTC"},{"COUNTRY_CODE":"US","PERIOD":"95.590","OBJECT_ID":"2021-036AK","ARG_OF_PERICENTER":"84.4800","CENTER_NAME":"EARTH","LAUNCH_DATE":"2021-04-29","ECCENTRICITY":"0.00016020","RCS_SIZE":"LARGE","DECAY_DATE":null,"NORAD_CAT_ID":"48309","TLE_LINE2":"2 48309  53.0525 164.8589 0001602  84.4800 275.6372 15.06436486108587","MEAN_MOTION":"15.06436486","REV_AT_EPOCH":"10858","INCLINATION":"53.0525","APOAPSIS":"548.211","TLE_LINE1":"1 48309U 21036AK  23105.86680227  .00001947  00000-0  14941-3 0  9999","EPHEMERIS_TYPE":"0","PERIAPSIS":"545.992","ELEMENT_SET_NO":"999","REF_FRAME":"TEME","MEAN_ELEMENT_THEORY":"SGP4","SITE":"AFETR","BSTAR":"0.00014941000000","MEAN_MOTION_DOT":"0.00001947","MEAN_MOTION_DDOT":"0.0000000000000","RA_OF_ASC_NODE":"164.8589","TIME_SYSTEM":"UTC","FILE":"3888171","OBJECT_TYPE":"PAYLOAD","GP_ID":"230128882","CLASSIFICATION_TYPE":"U","EPOCH":"2023-04-15T20:48:11.716128","SEMIMAJOR_AXIS":"6925.237","MEAN_ANOMALY":"275.6372","OBJECT_NAME":"STARLINK-2517"},{"GP_ID":"230098370","CLASSIFICATION_TYPE":"U","TIME_SYSTEM":"UTC","OBJECT_TYPE":"PAYLOAD","FILE":"3887974","MEAN_ANOMALY":"264.8139","SEMIMAJOR_AXIS":"6925.135","OBJECT_NAME":"STARLINK-2536","EPOCH":"2023-04-15T12:45:11.942208","PERIAPSIS":"546.359","REF_FRAME":"TEME","ELEMENT_SET_NO":"999","BSTAR":"0.00214000000000","MEAN_MOTION_DDOT":"0.0000000000000","MEAN_MOTION_DOT":"0.00031798","RA_OF_ASC_NODE":"166.3605","MEAN_ELEMENT_THEORY":"SGP4","SITE":"AFETR","MEAN_MOTION":"15.06469721","TLE_LINE2":"2 48310  53.0540 166.3605 0000925  95.2956 264.8139 15.06469721108535","REV_AT_EPOCH":"10853","INCLINATION":"53.0540","TLE_LINE1":"1 48310U 21036AL  23105.53138822  .00031798  00000-0  21400-2 0  9998","EPHEMERIS_TYPE":"0","APOAPSIS":"547.640","COUNTRY_CODE":"US","OBJECT_ID":"2021-036AL","PERIOD":"95.588","ARG_OF_PERICENTER":"95.2956","DECAY_DATE":null,"NORAD_CAT_ID":"48310","LAUNCH_DATE":"2021-04-29","CENTER_NAME":"EARTH","ECCENTRICITY":"0.00009250","RCS_SIZE":"LARGE"},{"OBJECT_TYPE":"PAYLOAD","FILE":"3888171","TIME_SYSTEM":"UTC","CLASSIFICATION_TYPE":"U","GP_ID":"230130380","EPOCH":"2023-04-15T20:37:36.231168","OBJECT_NAME":"STARLINK-2534","MEAN_ANOMALY":"271.6011","SEMIMAJOR_AXIS":"6925.290","REF_FRAME":"TEME","ELEMENT_SET_NO":"999","PERIAPSIS":"546.155","SITE":"AFETR","MEAN_ELEMENT_THEORY":"SGP4","RA_OF_ASC_NODE":"164.8919","MEAN_MOTION_DOT":"0.00011898","MEAN_MOTION_DDOT":"0.0000000000000","BSTAR":"0.00081589000000","TLE_LINE2":"2 48311  53.0533 164.8919 0001444  88.5144 271.6011 15.06419015108581","MEAN_MOTION":"15.06419015","APOAPSIS":"548.155","TLE_LINE1":"1 48311U 21036AM  23105.85944712  .00011898  00000-0  81589-3 0  9991","EPHEMERIS_TYPE":"0","INCLINATION":"53.0533","REV_AT_EPOCH":"10858","ARG_OF_PERICENTER":"88.5144","PERIOD":"95.591","OBJECT_ID":"2021-036AM","COUNTRY_CODE":"US","RCS_SIZE":"LARGE","CENTER_NAME":"EARTH","LAUNCH_DATE":"2021-04-29","ECCENTRICITY":"0.00014440","DECAY_DATE":null,"NORAD_CAT_ID":"48311"},{"GP_ID":"230128633","CLASSIFICATION_TYPE":"U","TIME_SYSTEM":"UTC","OBJECT_TYPE":"PAYLOAD","FILE":"3888171","MEAN_ANOMALY":"269.5315","SEMIMAJOR_AXIS":"6925.246","OBJECT_NAME":"STARLINK-2061","EPOCH":"2023-04-15T20:32:17.390112","PERIAPSIS":"546.208","ELEMENT_SET_NO":"999","REF_FRAME":"TEME","BSTAR":"0.00067316000000","MEAN_MOTION_DOT":"0.00009768","MEAN_MOTION_DDOT":"0.0000000000000","RA_OF_ASC_NODE":"164.9073","MEAN_ELEMENT_THEORY":"SGP4","SITE":"AFETR","MEAN_MOTION":"15.06433577","TLE_LINE2":"2 48312  53.0535 164.9073 0001303  90.5823 269.5315 15.06433577108589","REV_AT_EPOCH":"10858","INCLINATION":"53.0535","TLE_LINE1":"1 48312U 21036AN  23105.85575683  .00009768  00000-0  67316-3 0  9994","APOAPSIS":"548.013","EPHEMERIS_TYPE":"0","COUNTRY_CODE":"US","PERIOD":"95.590","OBJECT_ID":"2021-036AN","ARG_OF_PERICENTER":"90.5823","DECAY_DATE":null,"NORAD_CAT_ID":"48312","LAUNCH_DATE":"2021-04-29","CENTER_NAME":"EARTH","ECCENTRICITY":"0.00013030","RCS_SIZE":"LARGE"},{"RA_OF_ASC_NODE":"164.9218","MEAN_MOTION_DOT":"0.00022482","MEAN_MOTION_DDOT":"0.0000000000000","BSTAR":"0.00152080000000","SITE":"AFETR","MEAN_ELEMENT_THEORY":"SGP4","ELEMENT_SET_NO":"999","REF_FRAME":"TEME","PERIAPSIS":"545.759","OBJECT_NAME":"STARLINK-2541","MEAN_ANOMALY":"298.9517","SEMIMAJOR_AXIS":"6925.157","EPOCH":"2023-04-15T20:26:56.885856","CLASSIFICATION_TYPE":"U","GP_ID":"230129382","FILE":"3888171","OBJECT_TYPE":"PAYLOAD","TIME_SYSTEM":"UTC","DECAY_DATE":null,"NORAD_CAT_ID":"48313","RCS_SIZE":"LARGE","CENTER_NAME":"EARTH","LAUNCH_DATE":"2021-04-29","ECCENTRICITY":"0.00018240","ARG_OF_PERICENTER":"61.1655","PERIOD":"95.588","OBJECT_ID":"2021-036AP","COUNTRY_CODE":"US","TLE_LINE1":"1 48313U 21036AP  23105.85204729  .00022482  00000-0  15208-2 0  9995","EPHEMERIS_TYPE":"0","APOAPSIS":"548.285","INCLINATION":"53.0531","REV_AT_EPOCH":"10857","MEAN_MOTION":"15.06462564","TLE_LINE2":"2 48313  53.0531 164.9218 0001824  61.1655 298.9517 15.06462564108579"}];
